GLOBALSTAR M069         
1 31573U 07020C   26167.52669742 -.00000049  00000+0  40073-3 0  9991
2 31573  52.0028 253.9968 0002353 146.7200 226.7144 12.23471175878724
GLOBALSTAR M072         
1 31574U 07020D   26167.11742914 -.00000103  00000+0 -26589-3 0  9998
2 31574  51.9924 103.0930 0001413 329.6442  43.6351 11.91658407874853
GLOBALSTAR M066         
1 32265U 07048C   26167.45094997 -.00000146  00000+0 -43672-3 0  9993
2 32265  51.9604  60.0258 0005482  42.4083 128.8316 12.30387680860131
GLOBALSTAR M079         
1 37188U 10054A   26167.60624343 -.00000115  00000+0 -59968-4 0  9996
2 37188  52.0035 110.4381 0000707  23.0337 148.5239 12.62266075722475
GLOBALSTAR M074         
1 37189U 10054B   26167.55329294 -.00000122  00000+0 -10398-3 0  9999
2 37189  52.0008 109.8640 0000530  50.1634 120.8911 12.62268368723075
GLOBALSTAR M076         
1 37190U 10054C   26167.57965447 -.00000126  00000+0 -12145-3 0  9995
2 37190  52.0021 109.9867 0000723  41.4692 129.5221 12.62261751722792
GLOBALSTAR M077         
1 37191U 10054D   26167.80613808 -.00000082  00000+0 -69950-4 0  9991
2 37191  51.9920 180.2632 0002736 171.8680 359.2215 11.67547816721092
GLOBALSTAR M075         
1 37192U 10054E   26167.67224064 -.00000127  00000+0 -12752-3 0  9996
2 37192  51.9923 151.7605 0000161  20.6171 151.1983 12.62267360721871
GLOBALSTAR M073         
1 37193U 10054F   26167.88962544 -.00000088  00000+0  89191-4 0  9999
2 37193  52.0072  65.1981 0000924  46.9155  31.7013 12.62262233723899
GLOBALSTAR M083         
1 37739U 11033A   26167.88824558 -.00000087  00000+0  93562-4 0  9991
2 37739  51.9876  13.4315 0000930  66.7070 307.1051 12.62263121692912
GLOBALSTAR M088         
1 37740U 11033B   26167.48039468 -.00000085  00000+0  10558-3 0  9998
2 37740  52.0220 281.1015 0000715 126.3042 311.6052 12.62268707688408
GLOBALSTAR M091         
1 37741U 11033C   26167.47915524 -.00000079  00000+0  13684-3 0  9990
2 37741  51.9992 244.0718 0000316 153.1841 220.0751 12.62263889689195
GLOBALSTAR M085         
1 37742U 11033D   26167.81729558 -.00000099  00000+0  28746-4 0  9997
2 37742  52.0102 194.3332 0000120 286.8831 243.7708 12.62264155689748
GLOBALSTAR M081         
1 37743U 11033E   26167.84379970 -.00000090  00000+0  79180-4 0  9999
2 37743  51.9933 196.6891 0000114 101.4890  69.3007 12.62265089689891
GLOBALSTAR M089         
1 37744U 11033F   26167.72498638 -.00000118  00000+0 -78033-4 0  9998
2 37744  51.9907 151.2088 0000356  85.5041  85.9873 12.62267222690726
GLOBALSTAR M084         
1 38040U 11080A   26167.86175808 -.00000096  00000+0  43676-4 0  9995
2 38040  52.0028  18.2729 0001092  85.4616 287.7820 12.62267534668726
GLOBALSTAR M080         
1 38041U 11080B   26167.83306361 -.00000087  00000+0  93085-4 0  9992
2 38041  52.0080  20.0785 0000381  69.9121 302.9167 12.62269418668846
GLOBALSTAR M082         
1 38042U 11080C   26167.76936933 -.00000087  00000+0  91808-4 0  9990
2 38042  52.0105 335.7735 0000512  97.5287 275.7694 12.62263652669546
GLOBALSTAR M092         
1 38043U 11080D   26167.46121145 -.00000103  00000+0  50001-5 0  9999
2 38043  52.0095  67.1077 0000689  61.6444 109.6653 12.62266923667959
GLOBALSTAR M090         
1 38044U 11080E   26166.76653315 -.00000099  00000+0  27357-4 0  9992
2 38044  52.0143 332.7812 0000798  89.9015 283.1384 12.62269067669537
GLOBALSTAR M086         
1 38045U 11080F   26167.73874277 -.00000095  00000+0  46972-4 0  9993
2 38045  51.9915 329.7529 0001683  66.9646 307.0611 12.62286689669609
GLOBALSTAR M097         
1 39072U 13005A   26167.52940092 -.00000077  00000+0  14894-3 0  9996
2 39072  52.0041 245.3397 0000302 128.2604 231.8290 12.62247237616820
GLOBALSTAR M093         
1 39073U 13005B   26167.50262588 -.00000071  00000+0  18442-3 0  9999
2 39073  52.0099 238.7674 0000192  93.2383 266.8506 12.62265971616777
GLOBALSTAR M094         
1 39074U 13005C   26167.66089082 -.00000128  00000+0 -13632-3 0  9993
2 39074  51.9928 152.4013 0000391 359.3284   0.7582 12.62268575618407
GLOBALSTAR M096         
1 39075U 13005D   26167.83273601 -.00000094  00000+0  53333-4 0  9999
2 39075  52.0050 200.6804 0000041 269.8164  90.2698 12.62265650617349
GLOBALSTAR M078         
1 39076U 13005E   26167.64738218 -.00000168  00000+0 -35933-3 0  9997
2 39076  51.9887 285.2545 0000522 226.2981 133.7842 12.62257688615945
GLOBALSTAR M095         
1 39077U 13005F   26167.59494808 -.00000088  00000+0  90108-4 0  9992
2 39077  52.0093 283.0179 0000243 131.0407 229.0481 12.62263409615791
GLOBALSTAR M087         
1 52888U 22064A   26167.84574194 -.00000093  00000+0  61604-4 0  9992
2 52888  52.0009  63.4919 0000750  38.4019 321.6901 12.62269050191093
