OBJECT_NAME,OBJECT_ID,EPOCH,MEAN_MOTION,ECCENTRICITY,INCLINATION,RA_OF_ASC_NODE,ARG_OF_PERICENTER,MEAN_ANOMALY,EPHEMERIS_TYPE,CLASSIFICATION_TYPE,NORAD_CAT_ID,ELEMENT_SET_NO,REV_AT_EPOCH,BSTAR,MEAN_MOTION_DOT,MEAN_MOTION_DDOT
GLOBALSTAR M069,2007-020C,2026-06-16T12:38:26.657088,12.23471175,.00023532,52.0028,253.9968,146.7200,226.7144,0,U,31573,999,87872,.40072639E-3,-.49E-6,0
GLOBALSTAR M072,2007-020D,2026-06-16T02:49:05.877696,11.91658407,.00014137,51.9924,103.0930,329.6442,43.6351,0,U,31574,999,87485,-.26588521E-3,-.103E-5,0
GLOBALSTAR M066,2007-048C,2026-06-16T10:49:22.077408,12.30387680,.00054825,51.9604,60.0258,42.4083,128.8316,0,U,32265,999,86013,-.43671954E-3,-.146E-5,0
GLOBALSTAR M079,2010-054A,2026-06-16T14:32:59.432352,12.62266075,.0000707,52.0035,110.4381,23.0337,148.5239,0,U,37188,999,72247,-.59968E-4,-.115E-5,0
GLOBALSTAR M074,2010-054B,2026-06-16T13:16:44.510016,12.62268368,.00005302,52.0008,109.8640,50.1634,120.8911,0,U,37189,999,72307,-.1039783E-3,-.122E-5,0
GLOBALSTAR M076,2010-054C,2026-06-16T13:54:42.146208,12.62261751,.0000723,52.0021,109.9867,41.4692,129.5221,0,U,37190,999,72279,-.12145E-3,-.126E-5,0
GLOBALSTAR M077,2010-054D,2026-06-16T19:20:50.330112,11.67547816,.0002736,51.9920,180.2632,171.8680,359.2215,0,U,37191,999,72109,-.6995E-4,-.82E-6,0
GLOBALSTAR M075,2010-054E,2026-06-16T16:08:01.591296,12.62267360,.0000161,51.9923,151.7605,20.6171,151.1983,0,U,37192,999,72187,-.12752E-3,-.127E-5,0
GLOBALSTAR M073,2010-054F,2026-06-16T21:21:03.638016,12.62262233,.0000924,52.0072,65.1981,46.9155,31.7013,0,U,37193,999,72389,.89191E-4,-.88E-6,0
GLOBALSTAR M083,2011-033A,2026-06-16T21:19:04.418112,12.62263121,.000093,51.9876,13.4315,66.7070,307.1051,0,U,37739,999,69291,.93562E-4,-.87E-6,0
GLOBALSTAR M088,2011-033B,2026-06-16T11:31:46.100352,12.62268707,.00007154,52.0220,281.1015,126.3042,311.6052,0,U,37740,999,68840,.10557591E-3,-.85E-6,0
GLOBALSTAR M091,2011-033C,2026-06-16T11:29:59.012736,12.62263889,.00003167,51.9992,244.0718,153.1841,220.0751,0,U,37741,999,68919,.13683851E-3,-.79E-6,0
GLOBALSTAR M085,2011-033D,2026-06-16T19:36:54.338112,12.62264155,.000012,52.0102,194.3332,286.8831,243.7708,0,U,37742,999,68974,.28746E-4,-.99E-6,0
GLOBALSTAR M081,2011-033E,2026-06-16T20:15:04.294080,12.62265089,.0000114,51.9933,196.6891,101.4890,69.3007,0,U,37743,999,68989,.7918E-4,-.9E-6,0
GLOBALSTAR M089,2011-033F,2026-06-16T17:23:58.823232,12.62267222,.0000356,51.9907,151.2088,85.5041,85.9873,0,U,37744,999,69072,-.78033E-4,-.118E-5,0
GLOBALSTAR M084,2011-080A,2026-06-16T20:40:55.898112,12.62267534,.0001092,52.0028,18.2729,85.4616,287.7820,0,U,38040,999,66872,.43676E-4,-.96E-6,0
GLOBALSTAR M080,2011-080B,2026-06-16T19:59:36.695904,12.62269418,.0000381,52.0080,20.0785,69.9121,302.9167,0,U,38041,999,66884,.93085E-4,-.87E-6,0
GLOBALSTAR M082,2011-080C,2026-06-16T18:27:53.510112,12.62263652,.0000512,52.0105,335.7735,97.5287,275.7694,0,U,38042,999,66954,.91808E-4,-.87E-6,0
GLOBALSTAR M092,2011-080D,2026-06-16T11:04:08.669280,12.62266923,.00006892,52.0095,67.1077,61.6444,109.6653,0,U,38043,999,66795,.5000106E-5,-.103E-5,0
GLOBALSTAR M090,2011-080E,2026-06-15T18:23:48.464160,12.62269067,.00007986,52.0143,332.7812,89.9015,283.1384,0,U,38044,999,66953,.27357338E-4,-.99E-6,0
GLOBALSTAR M086,2011-080F,2026-06-16T17:43:47.375328,12.62286689,.0001683,51.9915,329.7529,66.9646,307.0611,0,U,38045,999,66960,.46972E-4,-.95E-6,0
GLOBALSTAR M097,2013-005A,2026-06-16T12:42:20.239488,12.62247237,.00003026,52.0041,245.3397,128.2604,231.8290,0,U,39072,999,61682,.14893981E-3,-.77E-6,0
GLOBALSTAR M093,2013-005B,2026-06-16T12:03:46.876032,12.62265971,.00001926,52.0099,238.7674,93.2383,266.8506,0,U,39073,999,61677,.18441983E-3,-.71E-6,0
GLOBALSTAR M094,2013-005C,2026-06-16T15:51:40.966848,12.62268575,.0000391,51.9928,152.4013,359.3284,0.7582,0,U,39074,999,61840,-.13632E-3,-.128E-5,0
GLOBALSTAR M096,2013-005D,2026-06-16T19:59:08.391264,12.62265650,.0000041,52.0050,200.6804,269.8164,90.2698,0,U,39075,999,61734,.53333E-4,-.94E-6,0
GLOBALSTAR M078,2013-005E,2026-06-16T15:32:13.820352,12.62257688,.0000522,51.9887,285.2545,226.2981,133.7842,0,U,39076,999,61594,-.35933E-3,-.168E-5,0
GLOBALSTAR M095,2013-005F,2026-06-16T14:16:43.514112,12.62263409,.0000243,52.0093,283.0179,131.0407,229.0481,0,U,39077,999,61579,.90108E-4,-.88E-6,0
GLOBALSTAR M087,2022-064A,2026-06-16T20:17:52.103616,12.62269050,.000075,52.0009,63.4919,38.4019,321.6901,0,U,52888,999,19109,.61604E-4,-.93E-6,0
